ISS (ZARYA)
1 25544U 98067A   26122.13533514  .00007461  00000+0  14312-3 0  9999
2 25544  51.6309 168.0490 0007234  13.9157 346.2029 15.49057929564615
