[{"OBJECT_NAME":"ISS (ZARYA)","OBJECT_ID":"1998-067A","EPOCH":"2026-05-02T03:14:52.956096","MEAN_MOTION":15.49057929,"ECCENTRICITY":0.0007234,"INCLINATION":51.6309,"RA_OF_ASC_NODE":168.049,"ARG_OF_PERICENTER":13.9157,"MEAN_ANOMALY":346.2029,"EPHEMERIS_TYPE":0,"CLASSIFICATION_TYPE":"U","NORAD_CAT_ID":25544,"ELEMENT_SET_NO":999,"REV_AT_EPOCH":56461,"BSTAR":0.00014312,"MEAN_MOTION_DOT":7.461e-5,"MEAN_MOTION_DDOT":0}]
